STARLINK-31720          
1 59497U 24071P   26068.12369372  .00000952  00000+0  44134-4 0  9998
2 59497  43.0029 343.4073 0003394 263.6483  96.3983 15.27582537108113
TRANSPORTER-14 OBJECT AC
1 64554U 25135AC  26068.82113864  .00024574  00000+0  93234-3 0  9990
2 64554  97.4518 185.7428 0001008 268.0523  92.0600 15.26845403 39827
